{"type": "FeatureCollection", "features": [ {"type": "Feature", "properties": {"norad_id": 30630, "name": "FENGYUN 1C DEB", "group": "fengyun-1c-debris", "lat": 18.877450630719167, "lon": 163.9462562704137, "alt_km": 802.2996218672279, "timestamp": "2025-12-19T18:58:41.865675+00:00", "meta": {"OBJECT_NAME": "FENGYUN 1C DEB", "OBJECT_ID": "1999-025ANM", "EPOCH": "2025-12-19T00:54:45.065376", "MEAN_MOTION": 14.22399798, "ECCENTRICITY": 0.00258245, "INCLINATION": 99.1724, "RA_OF_ASC_NODE": 166.3305, "ARG_OF_PERICENTER": 57.1132, "MEAN_ANOMALY": 69.9282, "EPHEMERIS_TYPE": 0, "CLASSIFICATION_TYPE": "U", "NORAD_CAT_ID": 30630, "ELEMENT_SET_NO": 999, "REV_AT_EPOCH": 97302, "BSTAR": 0.00066329353, "MEAN_MOTION_DOT": 1.434e-05, "MEAN_MOTION_DDOT": 0}, "tle": {"line1": "1 30630U 99025ANM 25353.03802159  .00001434  00000+0  66329-3 0  9993", "line2": "2 30630  99.1724 166.3305 0025824  57.1132  69.9282 14.22399798973021"}}, "geometry": {"type": "Point", "coordinates": [163.9462562704137, 18.877450630719167]}}, {"type": "Feature", "properties": {"norad_id": 30632, "name": "FENGYUN 1C DEB", "group": "fengyun-1c-debris", "lat": 23.232334095753306, "lon": -50.5500204593943, "alt_km": 672.9663174512552, "timestamp": "2025-12-19T18:58:41.865685+00:00", "meta": {"OBJECT_NAME": "FENGYUN 1C DEB", "OBJECT_ID": "1999-025ANP", "EPOCH": "2025-12-18T23:06:23.207904", "MEAN_MOTION": 14.62955263, "ECCENTRICITY": 0.00144836, "INCLINATION": 98.8246, "RA_OF_ASC_NODE": 124.7414, "ARG_OF_PERICENTER": 151.5357, "MEAN_ANOMALY": 326.5809, "EPHEMERIS_TYPE": 0, "CLASSIFICATION_TYPE": "U", "NORAD_CAT_ID": 30632, "ELEMENT_SET_NO": 999, "REV_AT_EPOCH": 97782, "BSTAR": 0.0026053558, "MEAN_MOTION_DOT": 0.00013331, "MEAN_MOTION_DDOT": 0}, "tle": {"line1": "1 30632U 99025ANP 25352.96276861  .00013331  00000+0  26054-2 0  9990", "line2": "2 30632  98.8246 124.7414 0014483 151.5357 326.5809 14.62955263977822"}}, "geometry": {"type": "Point", "coordinates": [-50.5500204593943, 23.232334095753306]}}, {"type": "Feature", "properties": {"norad_id": 30633, "name": "FENGYUN 1C DEB", "group": "fengyun-1c-debris", "lat": 3.2297682628123443, "lon": -142.19181150774818, "alt_km": 931.9387518901804, "timestamp": "2025-12-19T18:58:41.865695+00:00", "meta": {"OBJECT_NAME": "FENGYUN 1C DEB", "OBJECT_ID": "1999-025ANQ", "EPOCH": "2025-12-18T21:02:34.080576", "MEAN_MOTION": 14.04402448, "ECCENTRICITY": 0.01300862, "INCLINATION": 98.4205, "RA_OF_ASC_NODE": 217.4392, "ARG_OF_PERICENTER": 242.7308, "MEAN_ANOMALY": 181.0418, "EPHEMERIS_TYPE": 0, "CLASSIFICATION_TYPE": "U", "NORAD_CAT_ID": 30633, "ELEMENT_SET_NO": 999, "REV_AT_EPOCH": 95978, "BSTAR": 0.00057231836, "MEAN_MOTION_DOT": 9.42e-06, "MEAN_MOTION_DDOT": 0}, "tle": {"line1": "1 30633U 99025ANQ 25352.87678334  .00000942  00000+0  57232-3 0  9999", "line2": "2 30633  98.4205 217.4392 0130086 242.7308 181.0418 14.04402448959789"}}, "geometry": {"type": "Point", "coordinates": [-142.19181150774818, 3.2297682628123443]}}, {"type": "Feature", "properties": {"norad_id": 30634, "name": "FENGYUN 1C DEB", "group": "fengyun-1c-debris", "lat": 34.52083909691316, "lon": 163.30195928396117, "alt_km": 823.9172527638011, "timestamp": "2025-12-19T18:58:41.865706+00:00", "meta": {"OBJECT_NAME": "FENGYUN 1C DEB", "OBJECT_ID": "1999-025ANR", "EPOCH": "2025-12-18T22:07:12.749376", "MEAN_MOTION": 14.09752659, "ECCENTRICITY": 0.01210601, "INCLINATION": 99.2928, "RA_OF_ASC_NODE": 335.9388, "ARG_OF_PERICENTER": 79.4298, "MEAN_ANOMALY": 335.8507, "EPHEMERIS_TYPE": 0, "CLASSIFICATION_TYPE": "U", "NORAD_CAT_ID": 30634, "ELEMENT_SET_NO": 999, "REV_AT_EPOCH": 95704, "BSTAR": 0.0016265303, "MEAN_MOTION_DOT": 3.012e-05, "MEAN_MOTION_DDOT": 0}, "tle": {"line1": "1 30634U 99025ANR 25352.92167534  .00003012  00000+0  16265-2 0  9992", "line2": "2 30634  99.2928 335.9388 0121060  79.4298 335.8507 14.09752659957049"}}, "geometry": {"type": "Point", "coordinates": [163.30195928396117, 34.52083909691316]}}, {"type": "Feature", "properties": {"norad_id": 30639, "name": "FENGYUN 1C DEB", "group": "fengyun-1c-debris", "lat": 24.604299874911312, "lon": 101.88688862030155, "alt_km": 810.1052242925462, "timestamp": "2025-12-19T18:58:41.865716+00:00", "meta": {"OBJECT_NAME": "FENGYUN 1C DEB", "OBJECT_ID": "1999-025ANW", "EPOCH": "2025-12-17T06:30:35.963712", "MEAN_MOTION": 14.32402231, "ECCENTRICITY": 0.00679729, "INCLINATION": 99.0177, "RA_OF_ASC_NODE": 103.438, "ARG_OF_PERICENTER": 268.0362, "MEAN_ANOMALY": 91.3035, "EPHEMERIS_TYPE": 0, "CLASSIFICATION_TYPE": "U", "NORAD_CAT_ID": 30639, "ELEMENT_SET_NO": 999, "REV_AT_EPOCH": 96784, "BSTAR": 0.0023555928, "MEAN_MOTION_DOT": 6.494e-05, "MEAN_MOTION_DDOT": 0}, "tle": {"line1": "1 30639U 99025ANW 25351.27124958  .00006494  00000+0  23556-2 0  9995", "line2": "2 30639  99.0177 103.4380 0067972 268.0362  91.3035 14.32402231967840"}}, "geometry": {"type": "Point", "coordinates": [101.88688862030155, 24.604299874911312]}}, {"type": "Feature", "properties": {"norad_id": 30640, "name": "FENGYUN 1C DEB", "group": "fengyun-1c-debris", "lat": 68.39503456291456, "lon": 41.346128852251155, "alt_km": 779.5678505822052, "timestamp": "2025-12-19T18:58:41.865727+00:00", "meta": {"OBJECT_NAME": "FENGYUN 1C DEB", "OBJECT_ID": "1999-025ANX", "EPOCH": "2025-12-18T10:42:04.156416", "MEAN_MOTION": 14.14661377, "ECCENTRICITY": 0.00804799, "INCLINATION": 99.0577, "RA_OF_ASC_NODE": 63.7351, "ARG_OF_PERICENTER": 84.5625, "MEAN_ANOMALY": 340.5453, "EPHEMERIS_TYPE": 0, "CLASSIFICATION_TYPE": "U", "NORAD_CAT_ID": 30640, "ELEMENT_SET_NO": 999, "REV_AT_EPOCH": 96526, "BSTAR": 0.0011963324, "MEAN_MOTION_DOT": 2.329e-05, "MEAN_MOTION_DDOT": 0}, "tle": {"line1": "1 30640U 99025ANX 25352.44588144  .00002329  00000+0  11963-2 0  9990", "line2": "2 30640  99.0577  63.7351 0080479  84.5625 340.5453 14.14661377965267"}}, "geometry": {"type": "Point", "coordinates": [41.346128852251155, 68.39503456291456]}}, {"type": "Feature", "properties": {"norad_id": 30641, "name": "FENGYUN 1C DEB", "group": "fengyun-1c-debris", "lat": -30.79818439529791, "lon": 103.5640461718647, "alt_km": 664.5342728091873, "timestamp": "2025-12-19T18:58:41.865737+00:00", "meta": {"OBJECT_NAME": "FENGYUN 1C DEB", "OBJECT_ID": "1999-025ANY", "EPOCH": "2025-12-18T19:25:36.358176", "MEAN_MOTION": 14.7900801, "ECCENTRICITY": 0.01364198, "INCLINATION": 98.9428, "RA_OF_ASC_NODE": 287.8595, "ARG_OF_PERICENTER": 107.6128, "MEAN_ANOMALY": 280.1381, "EPHEMERIS_TYPE": 0, "CLASSIFICATION_TYPE": "U", "NORAD_CAT_ID": 30641, "ELEMENT_SET_NO": 999, "REV_AT_EPOCH": 622, "BSTAR": 0.00034814802, "MEAN_MOTION_DOT": 2.938e-05, "MEAN_MOTION_DDOT": 0}, "tle": {"line1": "1 30641U 99025ANY 25352.80944859  .00002938  00000+0  34815-3 0  9998", "line2": "2 30641  98.9428 287.8595 0136419 107.6128 280.1381 14.79008010  6222"}}, "geometry": {"type": "Point", "coordinates": [103.5640461718647, -30.79818439529791]}}, {"type": "Feature", "properties": {"norad_id": 30646, "name": "FENGYUN 1C DEB", "group": "fengyun-1c-debris", "lat": -10.063783439747239, "lon": 15.605458106490541, "alt_km": 832.4577041338443, "timestamp": "2025-12-19T18:58:41.865747+00:00", "meta": {"OBJECT_NAME": "FENGYUN 1C DEB", "OBJECT_ID": "1999-025APD", "EPOCH": "2025-12-18T12:21:48.622176", "MEAN_MOTION": 14.09665414, "ECCENTRICITY": 0.0047969, "INCLINATION": 98.6517, "RA_OF_ASC_NODE": 12.8311, "ARG_OF_PERICENTER": 15.8005, "MEAN_ANOMALY": 344.465, "EPHEMERIS_TYPE": 0, "CLASSIFICATION_TYPE": "U", "NORAD_CAT_ID": 30646, "ELEMENT_SET_NO": 999, "REV_AT_EPOCH": 96686, "BSTAR": 0.00053407666, "MEAN_MOTION_DOT": 9.04e-06, "MEAN_MOTION_DDOT": 0}, "tle": {"line1": "1 30646U 99025APD 25352.51514609  .00000904  00000+0  53408-3 0  9997", "line2": "2 30646  98.6517  12.8311 0047969  15.8005 344.4650 14.09665414966868"}}, "geometry": {"type": "Point", "coordinates": [15.605458106490541, -10.063783439747239]}}, {"type": "Feature", "properties": {"norad_id": 30647, "name": "FENGYUN 1C DEB", "group": "fengyun-1c-debris", "lat": -18.202366115975316, "lon": 103.3964951919826, "alt_km": 694.650951845977, "timestamp": "2025-12-19T18:58:41.865758+00:00", "meta": {"OBJECT_NAME": "FENGYUN 1C DEB", "OBJECT_ID": "1999-025APE", "EPOCH": "2025-12-18T19:06:55.916928", "MEAN_MOTION": 14.56582983, "ECCENTRICITY": 0.00296324, "INCLINATION": 98.9899, "RA_OF_ASC_NODE": 285.3091, "ARG_OF_PERICENTER": 154.9829, "MEAN_ANOMALY": 232.3653, "EPHEMERIS_TYPE": 0, "CLASSIFICATION_TYPE": "U", "NORAD_CAT_ID": 30647, "ELEMENT_SET_NO": 999, "REV_AT_EPOCH": 98077, "BSTAR": 0.0016176816, "MEAN_MOTION_DOT": 7.203e-05, "MEAN_MOTION_DDOT": 0}, "tle": {"line1": "1 30647U 99025APE 25352.79648052  .00007203  00000+0  16177-2 0  9998", "line2": "2 30647  98.9899 285.3091 0029632 154.9829 232.3653 14.56582983980778"}}, "geometry": {"type": "Point", "coordinates": [103.3964951919826, -18.202366115975316]}}, {"type": "Feature", "properties": {"norad_id": 30648, "name": "FENGYUN 1C DEB", "group": "fengyun-1c-debris", "lat": 45.71157842811083, "lon": -82.4268110192388, "alt_km": 705.8701641422613, "timestamp": "2025-12-19T18:58:41.865768+00:00", "meta": {"OBJECT_NAME": "FENGYUN 1C DEB", "OBJECT_ID": "1999-025APF", "EPOCH": "2025-12-18T18:05:21.149664", "MEAN_MOTION": 14.48208126, "ECCENTRICITY": 0.00339948, "INCLINATION": 98.6416, "RA_OF_ASC_NODE": 87.5439, "ARG_OF_PERICENTER": 109.9742, "MEAN_ANOMALY": 19.808, "EPHEMERIS_TYPE": 0, "CLASSIFICATION_TYPE": "U", "NORAD_CAT_ID": 30648, "ELEMENT_SET_NO": 999, "REV_AT_EPOCH": 97953, "BSTAR": 0.0015690912, "MEAN_MOTION_DOT": 5.852e-05, "MEAN_MOTION_DDOT": 0}, "tle": {"line1": "1 30648U 99025APF 25352.75371701  .00005852  00000+0  15691-2 0  9997", "line2": "2 30648  98.6416  87.5439 0033994 109.9742  19.8080 14.48208126979538"}}, "geometry": {"type": "Point", "coordinates": [-82.4268110192388, 45.71157842811083]}}]}